[{"OBJECT_NAME":"FLOCK 4G-8","OBJECT_ID":"2025-009E","EPOCH":"2026-03-09T17:22:17.546016","MEAN_MOTION":15.27623414,"ECCENTRICITY":0.00030503,"INCLINATION":97.4045,"RA_OF_ASC_NODE":151.2834,"ARG_OF_PERICENTER":315.2538,"MEAN_ANOMALY":44.8455,"EPHEMERIS_TYPE":0,"CLASSIFICATION_TYPE":"U","NORAD_CAT_ID":62613,"ELEMENT_SET_NO":999,"REV_AT_EPOCH":6372,"BSTAR":0.0005043806,"MEAN_MOTION_DOT":0.00013559,"MEAN_MOTION_DDOT":0},{"OBJECT_NAME":"STARLINK-33672","OBJECT_ID":"2025-057V","EPOCH":"2026-03-09T21:47:58.734816","MEAN_MOTION":15.27589509,"ECCENTRICITY":0.00011355,"INCLINATION":43.0001,"RA_OF_ASC_NODE":29.3596,"ARG_OF_PERICENTER":270.1685,"MEAN_ANOMALY":89.9036,"EPHEMERIS_TYPE":0,"CLASSIFICATION_TYPE":"U","NORAD_CAT_ID":63326,"ELEMENT_SET_NO":999,"REV_AT_EPOCH":5581,"BSTAR":0.001208326,"MEAN_MOTION_DOT":0.00033148,"MEAN_MOTION_DDOT":0}]
